{"fetched_at":"2026-07-13T18:16:29.920Z","source":"https://celestrak.org/NORAD/elements/gp.php?GROUP=kuiper&FORMAT=JSON","constellation":"kuiper","records":[{"OBJECT_NAME":"KUIPER-00408","OBJECT_ID":"2026-098F","EPOCH":"2026-07-13T12:00:00.998784","CLASSIFICATION_TYPE":"U","MEAN_MOTION":15.2599653,"ECCENTRICITY":0.0013817,"INCLINATION":51.8763,"RA_OF_ASC_NODE":304.0089,"ARG_OF_PERICENTER":254.9476,"MEAN_ANOMALY":232.3367,"EPHEMERIS_TYPE":0,"NORAD_CAT_ID":68924,"ELEMENT_SET_NO":999,"REV_AT_EPOCH":130,"BSTAR":-0.0013878,"MEAN_MOTION_DOT":-0.00036459,"MEAN_MOTION_DDOT":0},{"OBJECT_NAME":"KUIPER-00409","OBJECT_ID":"2026-098G","EPOCH":"2026-07-13T12:00:00.998784","CLASSIFICATION_TYPE":"U","MEAN_MOTION":15.04360602,"ECCENTRICITY":0.0005377,"INCLINATION":51.8907,"RA_OF_ASC_NODE":303.1586,"ARG_OF_PERICENTER":261.7318,"MEAN_ANOMALY":225.76,"EPHEMERIS_TYPE":0,"NORAD_CAT_ID":68925,"ELEMENT_SET_NO":999,"REV_AT_EPOCH":318,"BSTAR":-0.0036664,"MEAN_MOTION_DOT":-0.00051654,"MEAN_MOTION_DDOT":0},{"OBJECT_NAME":"KUIPER-00410","OBJECT_ID":"2026-098H","EPOCH":"2026-07-11T23:11:33.249120","CLASSIFICATION_TYPE":"U","MEAN_MOTION":15.26384022,"ECCENTRICITY":0.0012616,"INCLINATION":51.8765,"RA_OF_ASC_NODE":311.2399,"ARG_OF_PERICENTER":246.1428,"MEAN_ANOMALY":113.8232,"EPHEMERIS_TYPE":0,"NORAD_CAT_ID":68926,"ELEMENT_SET_NO":999,"REV_AT_EPOCH":1111,"BSTAR":0.00029939,"MEAN_MOTION_DOT":0.00007571,"MEAN_MOTION_DDOT":0},{"OBJECT_NAME":"KUIPER-00412","OBJECT_ID":"2026-098J","EPOCH":"2026-07-13T10:48:00.099360","CLASSIFICATION_TYPE":"U","MEAN_MOTION":15.37512292,"ECCENTRICITY":0.0003314,"INCLINATION":51.8784,"RA_OF_ASC_NODE":300.3061,"ARG_OF_PERICENTER":336.8649,"MEAN_ANOMALY":23.2189,"EPHEMERIS_TYPE":0,"NORAD_CAT_ID":68927,"ELEMENT_SET_NO":999,"REV_AT_EPOCH":1139,"BSTAR":0.00061786,"MEAN_MOTION_DOT":0.00022772,"MEAN_MOTION_DDOT":0},{"OBJECT_NAME":"KUIPER-00413","OBJECT_ID":"2026-098K","EPOCH":"2026-07-13T12:00:00.998784","CLASSIFICATION_TYPE":"U","MEAN_MOTION":15.06845244,"ECCENTRICITY":0.0021616,"INCLINATION":51.8865,"RA_OF_ASC_NODE":305.5557,"ARG_OF_PERICENTER":258.8877,"MEAN_ANOMALY":159.4393,"EPHEMERIS_TYPE":0,"NORAD_CAT_ID":68928,"ELEMENT_SET_NO":999,"REV_AT_EPOCH":483,"BSTAR":-0.0021512,"MEAN_MOTION_DOT":-0.00032775,"MEAN_MOTION_DDOT":0},{"OBJECT_NAME":"KUIPER-00414","OBJECT_ID":"2026-098L","EPOCH":"2026-07-13T07:47:41.772192","CLASSIFICATION_TYPE":"U","MEAN_MOTION":14.79932544,"ECCENTRICITY":0.0001106,"INCLINATION":51.8981,"RA_OF_ASC_NODE":315.1774,"ARG_OF_PERICENTER":259.6235,"MEAN_ANOMALY":100.4602,"EPHEMERIS_TYPE":0,"NORAD_CAT_ID":68929,"ELEMENT_SET_NO":999,"REV_AT_EPOCH":1117,"BSTAR":0.00026531,"MEAN_MOTION_DOT":0.00001802,"MEAN_MOTION_DDOT":0},{"OBJECT_NAME":"KUIPER-00415","OBJECT_ID":"2026-098M","EPOCH":"2026-07-13T11:16:03.178272","CLASSIFICATION_TYPE":"U","MEAN_MOTION":15.30231615,"ECCENTRICITY":0.0008754,"INCLINATION":51.8784,"RA_OF_ASC_NODE":302.6303,"ARG_OF_PERICENTER":241.6206,"MEAN_ANOMALY":118.3896,"EPHEMERIS_TYPE":0,"NORAD_CAT_ID":68930,"ELEMENT_SET_NO":999,"REV_AT_EPOCH":1136,"BSTAR":-0.00034941,"MEAN_MOTION_DOT":-0.00010731,"MEAN_MOTION_DDOT":0},{"OBJECT_NAME":"KUIPER-00416","OBJECT_ID":"2026-098N","EPOCH":"2026-07-13T12:09:57.463776","CLASSIFICATION_TYPE":"U","MEAN_MOTION":15.37573723,"ECCENTRICITY":0.0002271,"INCLINATION":51.8751,"RA_OF_ASC_NODE":299.9218,"ARG_OF_PERICENTER":333.3061,"MEAN_ANOMALY":26.7809,"EPHEMERIS_TYPE":0,"NORAD_CAT_ID":68931,"ELEMENT_SET_NO":999,"REV_AT_EPOCH":1140,"BSTAR":-0.00018526,"MEAN_MOTION_DOT":-0.00007324,"MEAN_MOTION_DDOT":0},{"OBJECT_NAME":"KUIPER-00420","OBJECT_ID":"2026-098P","EPOCH":"2026-07-13T11:46:20.191872","CLASSIFICATION_TYPE":"U","MEAN_MOTION":15.36692616,"ECCENTRICITY":0.0003356,"INCLINATION":51.8792,"RA_OF_ASC_NODE":300.5614,"ARG_OF_PERICENTER":303.6657,"MEAN_ANOMALY":56.4009,"EPHEMERIS_TYPE":0,"NORAD_CAT_ID":68932,"ELEMENT_SET_NO":999,"REV_AT_EPOCH":1139,"BSTAR":0.00045447,"MEAN_MOTION_DOT":0.0001619,"MEAN_MOTION_DDOT":0},{"OBJECT_NAME":"KUIPER-00421","OBJECT_ID":"2026-098Q","EPOCH":"2026-07-13T12:11:21.853248","CLASSIFICATION_TYPE":"U","MEAN_MOTION":15.30095412,"ECCENTRICITY":0.0007554,"INCLINATION":51.8787,"RA_OF_ASC_NODE":302.1361,"ARG_OF_PERICENTER":224.8411,"MEAN_ANOMALY":135.1963,"EPHEMERIS_TYPE":0,"NORAD_CAT_ID":68933,"ELEMENT_SET_NO":999,"REV_AT_EPOCH":1137,"BSTAR":0.00047763,"MEAN_MOTION_DOT":0.00013787,"MEAN_MOTION_DDOT":0},{"OBJECT_NAME":"KUIPER-00425","OBJECT_ID":"2026-098R","EPOCH":"2026-07-13T12:00:00.998784","CLASSIFICATION_TYPE":"U","MEAN_MOTION":15.15345075,"ECCENTRICITY":0.0011832,"INCLINATION":51.8819,"RA_OF_ASC_NODE":304.2418,"ARG_OF_PERICENTER":245.0046,"MEAN_ANOMALY":115.6576,"EPHEMERIS_TYPE":0,"NORAD_CAT_ID":68934,"ELEMENT_SET_NO":999,"REV_AT_EPOCH":464,"BSTAR":-0.0056244,"MEAN_MOTION_DOT":-0.0010635,"MEAN_MOTION_DDOT":0},{"OBJECT_NAME":"KUIPER-00430","OBJECT_ID":"2026-098S","EPOCH":"2026-07-13T12:00:00.998784","CLASSIFICATION_TYPE":"U","MEAN_MOTION":15.02606959,"ECCENTRICITY":0.0017508,"INCLINATION":51.8897,"RA_OF_ASC_NODE":305.2006,"ARG_OF_PERICENTER":252.3883,"MEAN_ANOMALY":60.1146,"EPHEMERIS_TYPE":0,"NORAD_CAT_ID":68935,"ELEMENT_SET_NO":999,"REV_AT_EPOCH":585,"BSTAR":-0.0038137,"MEAN_MOTION_DOT":-0.00051442,"MEAN_MOTION_DDOT":0},{"OBJECT_NAME":"KUIPER-00431","OBJECT_ID":"2026-098T","EPOCH":"2026-07-13T12:00:00.998784","CLASSIFICATION_TYPE":"U","MEAN_MOTION":14.88084745,"ECCENTRICITY":0.0013751,"INCLINATION":51.8954,"RA_OF_ASC_NODE":306.9808,"ARG_OF_PERICENTER":237.2898,"MEAN_ANOMALY":204.1036,"EPHEMERIS_TYPE":0,"NORAD_CAT_ID":68936,"ELEMENT_SET_NO":999,"REV_AT_EPOCH":410,"BSTAR":-0.0090699,"MEAN_MOTION_DOT":-0.00083634,"MEAN_MOTION_DDOT":0},{"OBJECT_NAME":"KUIPER-00432","OBJECT_ID":"2026-098U","EPOCH":"2026-07-13T12:51:50.804352","CLASSIFICATION_TYPE":"U","MEAN_MOTION":15.26374358,"ECCENTRICITY":0.0011297,"INCLINATION":51.8758,"RA_OF_ASC_NODE":303.0351,"ARG_OF_PERICENTER":249.6663,"MEAN_ANOMALY":110.3105,"EPHEMERIS_TYPE":0,"NORAD_CAT_ID":68937,"ELEMENT_SET_NO":999,"REV_AT_EPOCH":1136,"BSTAR":-0.013574,"MEAN_MOTION_DOT":-0.00343105,"MEAN_MOTION_DDOT":0},{"OBJECT_NAME":"KUIPER-00434","OBJECT_ID":"2026-098V","EPOCH":"2026-07-13T12:00:00.998784","CLASSIFICATION_TYPE":"U","MEAN_MOTION":15.06077747,"ECCENTRICITY":0.0002266,"INCLINATION":51.8915,"RA_OF_ASC_NODE":303.0923,"ARG_OF_PERICENTER":198.7967,"MEAN_ANOMALY":64.2386,"EPHEMERIS_TYPE":0,"NORAD_CAT_ID":68938,"ELEMENT_SET_NO":999,"REV_AT_EPOCH":545,"BSTAR":-0.010761,"MEAN_MOTION_DOT":-0.00155851,"MEAN_MOTION_DDOT":0},{"OBJECT_NAME":"KUIPER-00436","OBJECT_ID":"2026-098W","EPOCH":"2026-07-13T12:00:00.998784","CLASSIFICATION_TYPE":"U","MEAN_MOTION":15.08815408,"ECCENTRICITY":0.0008009,"INCLINATION":51.884,"RA_OF_ASC_NODE":303.4318,"ARG_OF_PERICENTER":240.6332,"MEAN_ANOMALY":199.6053,"EPHEMERIS_TYPE":0,"NORAD_CAT_ID":68939,"ELEMENT_SET_NO":999,"REV_AT_EPOCH":479,"BSTAR":-0.0031454,"MEAN_MOTION_DOT":-0.0005005,"MEAN_MOTION_DDOT":0}]}
