KUIPER-00408            
1 68924U 26098F   26194.50001156 -.00036459  00000+0 -13878-2 0  9991
2 68924  51.8763 304.0089 0013817 254.9476 232.3367 15.25996530  1307
KUIPER-00409            
1 68925U 26098G   26194.50001156 -.00051654  00000+0 -36664-2 0  9994
2 68925  51.8907 303.1586 0005377 261.7318 225.7600 15.04360602  3189
KUIPER-00410            
1 68926U 26098H   26192.96635705  .00007571  00000+0  29939-3 0  9991
2 68926  51.8765 311.2399 0012616 246.1428 113.8232 15.26384022 11113
KUIPER-00412            
1 68927U 26098J   26194.45000115  .00022772  00000+0  61786-3 0  9995
2 68927  51.8784 300.3061 0003314 336.8649  23.2189 15.37512292 11396
KUIPER-00413            
1 68928U 26098K   26194.50001156 -.00032775  00000+0 -21512-2 0  9996
2 68928  51.8865 305.5557 0021616 258.8877 159.4393 15.06845244  4837
KUIPER-00414            
1 68929U 26098L   26194.32478903  .00001802  00000+0  26531-3 0  9997
2 68929  51.8981 315.1774 0001106 259.6235 100.4602 14.79932544 11177
KUIPER-00415            
1 68930U 26098M   26194.46948123 -.00010731  00000+0 -34941-3 0  9997
2 68930  51.8784 302.6303 0008754 241.6206 118.3896 15.30231615 11367
KUIPER-00416            
1 68931U 26098N   26194.50691509 -.00007324  00000+0 -18526-3 0  9991
2 68931  51.8751 299.9218 0002271 333.3061  26.7809 15.37573723 11408
KUIPER-00420            
1 68932U 26098P   26194.49051148  .00016190  00000+0  45447-3 0  9990
2 68932  51.8792 300.5614 0003356 303.6657  56.4009 15.36692616 11391
KUIPER-00421            
1 68933U 26098Q   26194.50789182  .00013787  00000+0  47763-3 0  9991
2 68933  51.8787 302.1361 0007554 224.8411 135.1963 15.30095412 11376
KUIPER-00425            
1 68934U 26098R   26194.50001156 -.00106350  00000+0 -56244-2 0  9994
2 68934  51.8819 304.2418 0011832 245.0046 115.6576 15.15345075  4643
KUIPER-00430            
1 68935U 26098S   26194.50001156 -.00051442  00000+0 -38137-2 0  9997
2 68935  51.8897 305.2006 0017508 252.3883  60.1146 15.02606959  5858
KUIPER-00431            
1 68936U 26098T   26194.50001156 -.00083634  00000+0 -90699-2 0  9997
2 68936  51.8954 306.9808 0013751 237.2898 204.1036 14.88084745  4106
KUIPER-00432            
1 68937U 26098U   26194.53600468 -.00343105  00000+0 -13574-1 0  9990
2 68937  51.8758 303.0351 0011297 249.6663 110.3105 15.26374358 11366
KUIPER-00434            
1 68938U 26098V   26194.50001156 -.00155851  00000+0 -10761-1 0  9991
2 68938  51.8915 303.0923 0002266 198.7967  64.2386 15.06077747  5455
KUIPER-00436            
1 68939U 26098W   26194.50001156 -.00050050  00000+0 -31454-2 0  9990
2 68939  51.8840 303.4318 0008009 240.6332 199.6053 15.08815408  4795
